{"type": "FeatureCollection", "features": [{"type": "Feature", "properties": {"norad_id": 32275, "name": "COSMOS 2433 (720)", "group": "glo-ops", "lat": 8.547385382927386, "lon": -34.18002906485994, "alt_km": 19134.617563496402, "timestamp": "2025-12-20T14:38:02.230856+00:00", "meta": {"OBJECT_NAME": "COSMOS 2433 (720)", "OBJECT_ID": "2007-052A", "EPOCH": "2025-12-19T04:33:13.000320", "MEAN_MOTION": 2.13104199, "ECCENTRICITY": 0.0005237, "INCLINATION": 65.6796, "RA_OF_ASC_NODE": 321.9886, "ARG_OF_PERICENTER": 255.1824, "MEAN_ANOMALY": 104.7517, "EPHEMERIS_TYPE": 0, "CLASSIFICATION_TYPE": "U", "NORAD_CAT_ID": 32275, "ELEMENT_SET_NO": 999, "REV_AT_EPOCH": 14122, "BSTAR": 0, "MEAN_MOTION_DOT": -5.9e-07, "MEAN_MOTION_DDOT": 0}, "tle": {"line1": "1 32275U 07052A   25353.18973380 -.00000059  00000+0  00000+0 0  9993", "line2": "2 32275  65.6796 321.9886 0005237 255.1824 104.7517  2.13104199141226"}}, "geometry": {"type": "Point", "coordinates": [-34.18002906485994, 8.547385382927386]}}, {"type": "Feature", "properties": {"norad_id": 32276, "name": "COSMOS 2432 (719)", "group": "glo-ops", "lat": -41.143732557505665, "lon": -61.1979948117771, "alt_km": 19105.928633459363, "timestamp": "2025-12-20T14:38:02.230880+00:00", "meta": {"OBJECT_NAME": "COSMOS 2432 (719)", "OBJECT_ID": "2007-052B", "EPOCH": "2025-12-20T05:50:58.661664", "MEAN_MOTION": 2.13103398, "ECCENTRICITY": 0.00113391, "INCLINATION": 65.6947, "RA_OF_ASC_NODE": 322.0776, "ARG_OF_PERICENTER": 314.0223, "MEAN_ANOMALY": 78.9513, "EPHEMERIS_TYPE": 0, "CLASSIFICATION_TYPE": "U", "NORAD_CAT_ID": 32276, "ELEMENT_SET_NO": 999, "REV_AT_EPOCH": 14127, "BSTAR": 0, "MEAN_MOTION_DOT": -5.3e-07, "MEAN_MOTION_DDOT": 0}, "tle": {"line1": "1 32276U 07052B   25354.24373451 -.00000053  00000+0  00000+0 0  9999", "line2": "2 32276  65.6947 322.0776 0011339 314.0223  78.9513  2.13103398141276"}}, "geometry": {"type": "Point", "coordinates": [-61.1979948117771, -41.143732557505665]}}, {"type": "Feature", "properties": {"norad_id": 32393, "name": "COSMOS 2434 (721)", "group": "glo-ops", "lat": -62.49496536436173, "lon": 85.57517868822741, "alt_km": 19148.464802749262, "timestamp": "2025-12-20T14:38:02.230895+00:00", "meta": {"OBJECT_NAME": "COSMOS 2434 (721)", "OBJECT_ID": "2007-065A", "EPOCH": "2025-12-20T06:27:54.985824", "MEAN_MOTION": 2.13101449, "ECCENTRICITY": 0.00047648, "INCLINATION": 64.3153, "RA_OF_ASC_NODE": 197.949, "ARG_OF_PERICENTER": 71.73, "MEAN_ANOMALY": 287.081, "EPHEMERIS_TYPE": 0, "CLASSIFICATION_TYPE": "U", "NORAD_CAT_ID": 32393, "ELEMENT_SET_NO": 999, "REV_AT_EPOCH": 13995, "BSTAR": 0, "MEAN_MOTION_DOT": 1.01e-06, "MEAN_MOTION_DDOT": 0}, "tle": {"line1": "1 32393U 07065A   25354.26938641  .00000101  00000+0  00000+0 0  9996", "line2": "2 32393  64.3153 197.9490 0004764  71.7300 287.0810  2.13101449139950"}}, "geometry": {"type": "Point", "coordinates": [85.57517868822741, -62.49496536436173]}}, {"type": "Feature", "properties": {"norad_id": 32395, "name": "COSMOS 2436 (723)", "group": "glo-ops", "lat": 29.371872563889774, "lon": -146.26945915060108, "alt_km": 19084.829614978622, "timestamp": "2025-12-20T14:38:02.230908+00:00", "meta": {"OBJECT_NAME": "COSMOS 2436 (723)", "OBJECT_ID": "2007-065C", "EPOCH": "2025-12-19T09:42:12.629376", "MEAN_MOTION": 2.13100261, "ECCENTRICITY": 0.0017823, "INCLINATION": 64.3238, "RA_OF_ASC_NODE": 198.0487, "ARG_OF_PERICENTER": 9.8735, "MEAN_ANOMALY": 178.3327, "EPHEMERIS_TYPE": 0, "CLASSIFICATION_TYPE": "U", "NORAD_CAT_ID": 32395, "ELEMENT_SET_NO": 999, "REV_AT_EPOCH": 13989, "BSTAR": 0, "MEAN_MOTION_DOT": 1.05e-06, "MEAN_MOTION_DDOT": 0}, "tle": {"line1": "1 32395U 07065C   25353.40431284  .00000105  00000+0  00000+0 0  9998", "line2": "2 32395  64.3238 198.0487 0017823   9.8735 178.3327  2.13100261139897"}}, "geometry": {"type": "Point", "coordinates": [-146.26945915060108, 29.371872563889774]}}, {"type": "Feature", "properties": {"norad_id": 36111, "name": "COSMOS 2456 (730)", "group": "glo-ops", "lat": 49.47859855444426, "lon": 110.26693131419603, "alt_km": 19128.348566643977, "timestamp": "2025-12-20T14:38:02.230920+00:00", "meta": {"OBJECT_NAME": "COSMOS 2456 (730)", "OBJECT_ID": "2009-070A", "EPOCH": "2025-12-20T03:13:18.516576", "MEAN_MOTION": 2.13103685, "ECCENTRICITY": 0.00033011, "INCLINATION": 64.904, "RA_OF_ASC_NODE": 77.0852, "ARG_OF_PERICENTER": 296.9564, "MEAN_ANOMALY": 115.2996, "EPHEMERIS_TYPE": 0, "CLASSIFICATION_TYPE": "U", "NORAD_CAT_ID": 36111, "ELEMENT_SET_NO": 999, "REV_AT_EPOCH": 12461, "BSTAR": 0, "MEAN_MOTION_DOT": -2.2e-07, "MEAN_MOTION_DDOT": 0}, "tle": {"line1": "1 36111U 09070A   25354.13424209 -.00000022  00000+0  00000+0 0  9995", "line2": "2 36111  64.9040  77.0852 0003301 296.9564 115.2996  2.13103685124610"}}, "geometry": {"type": "Point", "coordinates": [110.26693131419603, 49.47859855444426]}}, {"type": "Feature", "properties": {"norad_id": 36112, "name": "COSMOS 2457 (733)", "group": "glo-ops", "lat": -5.5802221957892035, "lon": -100.44902344803087, "alt_km": 19120.64837975918, "timestamp": "2025-12-20T14:38:02.230931+00:00", "meta": {"OBJECT_NAME": "COSMOS 2457 (733)", "OBJECT_ID": "2009-070B", "EPOCH": "2025-12-19T12:47:22.832160", "MEAN_MOTION": 2.13101086, "ECCENTRICITY": 0.0004579, "INCLINATION": 64.8894, "RA_OF_ASC_NODE": 76.9529, "ARG_OF_PERICENTER": 161.1215, "MEAN_ANOMALY": 278.8833, "EPHEMERIS_TYPE": 0, "CLASSIFICATION_TYPE": "U", "NORAD_CAT_ID": 36112, "ELEMENT_SET_NO": 999, "REV_AT_EPOCH": 12460, "BSTAR": 0, "MEAN_MOTION_DOT": -2.8e-07, "MEAN_MOTION_DDOT": 0}, "tle": {"line1": "1 36112U 09070B   25353.53290315 -.00000028  00000+0  00000+0 0  9994", "line2": "2 36112  64.8894  76.9529 0004579 161.1215 278.8833  2.13101086124608"}}, "geometry": {"type": "Point", "coordinates": [-100.44902344803087, -5.5802221957892035]}}, {"type": "Feature", "properties": {"norad_id": 36402, "name": "COSMOS 2460 (732)", "group": "glo-ops", "lat": -5.242634208592478, "lon": 142.88414816351016, "alt_km": 19131.278688851584, "timestamp": "2025-12-20T14:38:02.230943+00:00", "meta": {"OBJECT_NAME": "COSMOS 2460 (732)", "OBJECT_ID": "2010-007C", "EPOCH": "2025-12-19T13:42:43.098624", "MEAN_MOTION": 2.131063, "ECCENTRICITY": 0.0002543, "INCLINATION": 65.526, "RA_OF_ASC_NODE": 320.5423, "ARG_OF_PERICENTER": 279.9868, "MEAN_ANOMALY": 189.087, "EPHEMERIS_TYPE": 0, "CLASSIFICATION_TYPE": "U", "NORAD_CAT_ID": 36402, "ELEMENT_SET_NO": 999, "REV_AT_EPOCH": 12290, "BSTAR": 0, "MEAN_MOTION_DOT": -5.7e-07, "MEAN_MOTION_DDOT": 0}, "tle": {"line1": "1 36402U 10007C   25353.57133216 -.00000057  00000+0  00000+0 0  9990", "line2": "2 36402  65.5260 320.5423 0002543 279.9868 189.0870  2.13106300122906"}}, "geometry": {"type": "Point", "coordinates": [142.88414816351016, -5.242634208592478]}}, {"type": "Feature", "properties": {"norad_id": 37867, "name": "COSMOS 2476 (744)", "group": "glo-ops", "lat": -30.81668035494797, "lon": 62.91212059366977, "alt_km": 19134.92944745162, "timestamp": "2025-12-20T14:38:02.230955+00:00", "meta": {"OBJECT_NAME": "COSMOS 2476 (744)", "OBJECT_ID": "2011-064A", "EPOCH": "2025-12-19T06:05:26.552256", "MEAN_MOTION": 2.13103916, "ECCENTRICITY": 0.0024321, "INCLINATION": 65.1662, "RA_OF_ASC_NODE": 78.9509, "ARG_OF_PERICENTER": 234.6548, "MEAN_ANOMALY": 130.4776, "EPHEMERIS_TYPE": 0, "CLASSIFICATION_TYPE": "U", "NORAD_CAT_ID": 37867, "ELEMENT_SET_NO": 999, "REV_AT_EPOCH": 10993, "BSTAR": 0, "MEAN_MOTION_DOT": -3e-07, "MEAN_MOTION_DDOT": 0}, "tle": {"line1": "1 37867U 11064A   25353.25377954 -.00000030  00000+0  00000+0 0  9995", "line2": "2 37867  65.1662  78.9509 0024321 234.6548 130.4776  2.13103916109937"}}, "geometry": {"type": "Point", "coordinates": [62.91212059366977, -30.81668035494797]}}, {"type": "Feature", "properties": {"norad_id": 37868, "name": "COSMOS 2477 (745)", "group": "glo-ops", "lat": 30.441325194514576, "lon": -116.76204721987156, "alt_km": 19125.081502880155, "timestamp": "2025-12-20T14:38:02.230966+00:00", "meta": {"OBJECT_NAME": "COSMOS 2477 (745)", "OBJECT_ID": "2011-064B", "EPOCH": "2025-12-19T13:37:36.499584", "MEAN_MOTION": 2.13102956, "ECCENTRICITY": 0.0021226, "INCLINATION": 65.1727, "RA_OF_ASC_NODE": 79.0178, "ARG_OF_PERICENTER": 234.8822, "MEAN_ANOMALY": 192.052, "EPHEMERIS_TYPE": 0, "CLASSIFICATION_TYPE": "U", "NORAD_CAT_ID": 37868, "ELEMENT_SET_NO": 999, "REV_AT_EPOCH": 10993, "BSTAR": 0, "MEAN_MOTION_DOT": -2.7e-07, "MEAN_MOTION_DDOT": 0}, "tle": {"line1": "1 37868U 11064B   25353.56778356 -.00000027  00000+0  00000+0 0  9997", "line2": "2 37868  65.1727  79.0178 0021226 234.8822 192.0520  2.13102956109936"}}, "geometry": {"type": "Point", "coordinates": [-116.76204721987156, 30.441325194514576]}}, {"type": "Feature", "properties": {"norad_id": 37869, "name": "COSMOS 2475 (743)", "group": "glo-ops", "lat": 62.604037480197036, "lon": -164.02943066323567, "alt_km": 19179.517531447767, "timestamp": "2025-12-20T14:38:02.230978+00:00", "meta": {"OBJECT_NAME": "COSMOS 2475 (743)", "OBJECT_ID": "2011-064C", "EPOCH": "2025-12-19T14:11:24.597888", "MEAN_MOTION": 2.13101629, "ECCENTRICITY": 0.0026449, "INCLINATION": 65.1796, "RA_OF_ASC_NODE": 79.0372, "ARG_OF_PERICENTER": 248.8375, "MEAN_ANOMALY": 152.0175, "EPHEMERIS_TYPE": 0, "CLASSIFICATION_TYPE": "U", "NORAD_CAT_ID": 37869, "ELEMENT_SET_NO": 999, "REV_AT_EPOCH": 10994, "BSTAR": 0, "MEAN_MOTION_DOT": -2.6e-07, "MEAN_MOTION_DDOT": 0}, "tle": {"line1": "1 37869U 11064C   25353.59125692 -.00000026  00000+0  00000+0 0  9999", "line2": "2 37869  65.1796  79.0372 0026449 248.8375 152.0175  2.13101629109948"}}, "geometry": {"type": "Point", "coordinates": [-164.02943066323567, 62.604037480197036]}}]}